[
    {
        "Altitude(m)": 624790.7739087713,
        "Argument of Periapsis(deg)": 0.0,
        "Eccentricity": 0.0,
        "Inclination(deg)": 60.0,
        "Latitude(deg)": -59.14705146152207,
        "Longitude(deg)": 66.03470821406378,
        "Mean Anomaly(deg)": -81.81819999999996,
        "RAAN(deg)": 240.0,
        "Satellite Name": "Test1 1073",
        "Satellite Number": 1073,
        "Semi-Major Axis(m)": 6980739.136638005,
        "Time(s)": 0
    },
    {
        "Altitude(m)": 624737.4285260382,
        "Argument of Periapsis(deg)": 0.00010418945913296404,
        "Eccentricity": 0.0,
        "Inclination(deg)": 60.0,
        "Latitude(deg)": -58.994505418548464,
        "Longitude(deg)": 67.15420753641506,
        "Mean Anomaly(deg)": -81.1980938545381,
        "RAAN(deg)": 239.99957995086024,
        "Satellite Name": "Test1 1073",
        "Satellite Number": 1073,
        "Semi-Major Axis(m)": 6980739.136638005,
        "Time(s)": 10
    },
    {
        "Altitude(m)": 624680.2995575832,
        "Argument of Periapsis(deg)": 0.0002083789182659281,
        "Eccentricity": 0.0,
        "Inclination(deg)": 60.0,
        "Latitude(deg)": -58.83164781527439,
        "Longitude(deg)": 68.26315445391404,
        "Mean Anomaly(deg)": -80.57798770907635,
        "RAAN(deg)": 239.99915990172047,
        "Satellite Name": "Test1 1073",
        "Satellite Number": 1073,
        "Semi-Major Axis(m)": 6980739.136638005,
        "Time(s)": 20
    },
    {
        "Altitude(m)": 624619.4094690027,
        "Argument of Periapsis(deg)": 0.00031256837739889213,
        "Eccentricity": 0.0,
        "Inclination(deg)": 60.0,
        "Latitude(deg)": -58.658639288545025,
        "Longitude(deg)": 69.36104089851044,
        "Mean Anomaly(deg)": -79.95788156361445,
        "RAAN(deg)": 239.99873985258077,
        "Satellite Name": "Test1 1073",
        "Satellite Number": 1073,
        "Semi-Major Axis(m)": 6980739.136638005,
        "Time(s)": 30
    },
    {
        "Altitude(m)": 624554.7822029662,
        "Argument of Periapsis(deg)": 0.0004167578365318562,
        "Eccentricity": 0.0,
        "Inclination(deg)": 60.0,
        "Latitude(deg)": -58.4756468595927,
        "Longitude(deg)": 70.44739890505161,
        "Mean Anomaly(deg)": -79.3377754181527,
        "RAAN(deg)": 239.99831980344103,
        "Satellite Name": "Test1 1073",
        "Satellite Number": 1073,
        "Semi-Major Axis(m)": 6980739.136638005,
        "Time(s)": 40
    },
    {
        "Altitude(m)": 624486.4431691234,
        "Argument of Periapsis(deg)": 0.0005209472956648203,
        "Eccentricity": 0.0,
        "Inclination(deg)": 60.0,
        "Latitude(deg)": -58.282843231461676,
        "Longitude(deg)": 71.52179984853181,
        "Mean Anomaly(deg)": -78.71766927269084,
        "RAAN(deg)": 239.99789975430127,
        "Satellite Name": "Test1 1073",
        "Satellite Number": 1073,
        "Semi-Major Axis(m)": 6980739.136638005,
        "Time(s)": 50
    },
    {
        "Altitude(m)": 624414.4192333705,
        "Argument of Periapsis(deg)": 0.0006251367547977843,
        "Eccentricity": 0.0,
        "Inclination(deg)": 60.0,
        "Latitude(deg)": -58.080406092394476,
        "Longitude(deg)": 72.58385490974712,
        "Mean Anomaly(deg)": -78.0975631272291,
        "RAAN(deg)": 239.9974797051615,
        "Satellite Name": "Test1 1073",
        "Satellite Number": 1073,
        "Semi-Major Axis(m)": 6980739.136638005,
        "Time(s)": 60
    },
    {
        "Altitude(m)": 624338.7387065319,
        "Argument of Periapsis(deg)": 0.0007293262139307483,
        "Eccentricity": 0.0,
        "Inclination(deg)": 60.0,
        "Latitude(deg)": -57.8685174304489,
        "Longitude(deg)": 73.63321527602271,
        "Mean Anomaly(deg)": -77.47745698176719,
        "RAAN(deg)": 239.9970596560218,
        "Satellite Name": "Test1 1073",
        "Satellite Number": 1073,
        "Semi-Major Axis(m)": 6980739.136638005,
        "Time(s)": 70
    },
    {
        "Altitude(m)": 624259.4313323988,
        "Argument of Periapsis(deg)": 0.0008335156730637124,
        "Eccentricity": 0.0,
        "Inclination(deg)": 60.0,
        "Latitude(deg)": -57.64736286409451,
        "Longitude(deg)": 74.66957058579591,
        "Mean Anomaly(deg)": -76.85735083630544,
        "RAAN(deg)": 239.99663960688207,
        "Satellite Name": "Test1 1073",
        "Satellite Number": 1073,
        "Semi-Major Axis(m)": 6980739.136638005,
        "Time(s)": 80
    },
    {
        "Altitude(m)": 624176.5282751682,
        "Argument of Periapsis(deg)": 0.0009377051321966765,
        "Eccentricity": 0.0,
        "Inclination(deg)": 60.0,
        "Latitude(deg)": -57.41713099298145,
        "Longitude(deg)": 75.6926486659948,
        "Mean Anomaly(deg)": -76.23724469084358,
        "RAAN(deg)": 239.9962195577423,
        "Satellite Name": "Test1 1073",
        "Satellite Number": 1073,
        "Semi-Major Axis(m)": 6980739.136638005,
        "Time(s)": 90
    },
    {
        "Altitude(m)": 624090.0621062791,
        "Argument of Periapsis(deg)": 0.0010418945913296407,
        "Eccentricity": 0.0,
        "Inclination(deg)": 60.0,
        "Latitude(deg)": -57.178012772513384,
        "Longitude(deg)": 76.7022150735026,
        "Mean Anomaly(deg)": -75.61713854538174,
        "RAAN(deg)": 239.99579950860254,
        "Satellite Name": "Test1 1073",
        "Satellite Number": 1073,
        "Semi-Major Axis(m)": 6980739.136638005,
        "Time(s)": 100
    },
    {
        "Altitude(m)": 624000.0667906448,
        "Argument of Periapsis(deg)": 0.0011460840504626045,
        "Eccentricity": 0.0,
        "Inclination(deg)": 60.0,
        "Latitude(deg)": -56.93020091528578,
        "Longitude(deg)": 77.69807095245207,
        "Mean Anomaly(deg)": -74.99703239991993,
        "RAAN(deg)": 239.99537945946284,
        "Satellite Name": "Test1 1073",
        "Satellite Number": 1073,
        "Semi-Major Axis(m)": 6980739.136638005,
        "Time(s)": 110
    },
    {
        "Altitude(m)": 623906.5776722732,
        "Argument of Periapsis(deg)": 0.0012502735095955685,
        "Eccentricity": 0.0,
        "Inclination(deg)": 60.0,
        "Latitude(deg)": -56.67388932188965,
        "Longitude(deg)": 78.68005225766345,
        "Mean Anomaly(deg)": -74.37692625445807,
        "RAAN(deg)": 239.9949594103231,
        "Satellite Name": "Test1 1073",
        "Satellite Number": 1073,
        "Semi-Major Axis(m)": 6980739.136638005,
        "Time(s)": 120
    },
    {
        "Altitude(m)": 623809.6314593419,
        "Argument of Periapsis(deg)": 0.0013544629687285324,
        "Eccentricity": 0.0,
        "Inclination(deg)": 60.0,
        "Latitude(deg)": -56.40927254304348,
        "Longitude(deg)": 79.64802885548063,
        "Mean Anomaly(deg)": -73.75682010899622,
        "RAAN(deg)": 239.99453936118334,
        "Satellite Name": "Test1 1073",
        "Satellite Number": 1073,
        "Semi-Major Axis(m)": 6980739.136638005,
        "Time(s)": 130
    },
    {
        "Altitude(m)": 623709.266208633,
        "Argument of Periapsis(deg)": 0.0014586524278614966,
        "Eccentricity": 0.0,
        "Inclination(deg)": 60.0,
        "Latitude(deg)": -56.13654527450268,
        "Longitude(deg)": 80.6019020124494,
        "Mean Anomaly(deg)": -73.13671396353436,
        "RAAN(deg)": 239.99411931204355,
        "Satellite Name": "Test1 1073",
        "Satellite Number": 1073,
        "Semi-Major Axis(m)": 6980739.136638005,
        "Time(s)": 140
    },
    {
        "Altitude(m)": 623605.5213094162,
        "Argument of Periapsis(deg)": 0.0015628418869944607,
        "Eccentricity": 0.0,
        "Inclination(deg)": 60.0,
        "Latitude(deg)": -55.85590188571369,
        "Longitude(deg)": 81.54160331977879,
        "Mean Anomaly(deg)": -72.51660781807257,
        "RAAN(deg)": 239.99369926290387,
        "Satellite Name": "Test1 1073",
        "Satellite Number": 1073,
        "Semi-Major Axis(m)": 6980739.136638005,
        "Time(s)": 150
    },
    {
        "Altitude(m)": 623498.4374667701,
        "Argument of Periapsis(deg)": 0.0016670313461274247,
        "Eccentricity": 0.0,
        "Inclination(deg)": 60.0,
        "Latitude(deg)": -55.567535982743046,
        "Longitude(deg)": 82.46709356157517,
        "Mean Anomaly(deg)": -71.89650167261071,
        "RAAN(deg)": 239.99327921376414,
        "Satellite Name": "Test1 1073",
        "Satellite Number": 1073,
        "Semi-Major Axis(m)": 6980739.136638005,
        "Time(s)": 160
    },
    {
        "Altitude(m)": 623388.0566843051,
        "Argument of Periapsis(deg)": 0.0017712208052603888,
        "Eccentricity": 0.0,
        "Inclination(deg)": 60.0,
        "Latitude(deg)": -55.27164000561075,
        "Longitude(deg)": 83.37836003331451,
        "Mean Anomaly(deg)": -71.27639552714886,
        "RAAN(deg)": 239.99285916462435,
        "Satellite Name": "Test1 1073",
        "Satellite Number": 1073,
        "Semi-Major Axis(m)": 6980739.136638005,
        "Time(s)": 170
    },
    {
        "Altitude(m)": 623274.422246349,
        "Argument of Periapsis(deg)": 0.001875410264393353,
        "Eccentricity": 0.0,
        "Inclination(deg)": 60.0,
        "Latitude(deg)": -54.968404859801204,
        "Longitude(deg)": 84.27541535398471,
        "Mean Anomaly(deg)": -70.656289381687,
        "RAAN(deg)": 239.9924391154846,
        "Satellite Name": "Test1 1073",
        "Satellite Number": 1073,
        "Semi-Major Axis(m)": 6980739.136638005,
        "Time(s)": 180
    },
    {
        "Altitude(m)": 623157.5786995704,
        "Argument of Periapsis(deg)": 0.0019795997235263173,
        "Eccentricity": 0.0,
        "Inclination(deg)": 60.0,
        "Latitude(deg)": -54.65801958141522,
        "Longitude(deg)": 85.15829627500038,
        "Mean Anomaly(deg)": -70.03618323622521,
        "RAAN(deg)": 239.9920190663449,
        "Satellite Name": "Test1 1073",
        "Satellite Number": 1073,
        "Semi-Major Axis(m)": 6980739.136638005,
        "Time(s)": 190
    }
]